COSMOS 2361             
1 25590U 98076A   12352.78636054  .00000049  00000-0  36123-4 0  1559
2 25590  82.9337 249.6754 0032499 126.4836 233.9319 13.72793450700580
COSMOS 2378             
1 26818U 01023A   12352.61310893  .00000044  00000-0  30861-4 0  2314
2 26818  82.9279 274.2725 0034707  89.8512 270.6634 13.73800031577998
COSMOS 2389             
1 27436U 02026A   12352.53464837  .00000057  00000-0  43634-4 0  8912
2 27436  82.9491 216.3681 0046252 335.2308  24.6629 13.74798148529756
COSMOS 2398             
1 27818U 03023A   12352.82580307  .00000045  00000-0  33147-4 0  8013
2 27818  82.9452 166.5377 0030743 324.7482  35.1613 13.72025437477719
COSMOS 2407             
1 28380U 04028A   12352.48011925  .00000016  00000-0  84984-6 0  6463
2 28380  82.9584 124.1735 0039507 357.8904   2.2084 13.75915588422109
COSMOS 2414             
1 28521U 05002A   12353.00119411  .00000082  00000-0  55756-4 0  5848
2 28521  82.9467 170.0318 0040187 341.3259  18.6424 13.87434745400558
COSMOS 2429             
1 32052U 07038A   12352.78796536  .00000059  00000-0  46472-4 0  4990
2 32052  82.9796 237.5645 0037675 319.1808  40.6527 13.74763138264374
COSMOS 2454             
1 35635U 09039A   12352.99436200  .00000068  00000-0  42873-4 0  2028
2 35635  82.9536 162.8533 0018668 322.8483  37.1382 13.89463253172990
COSMOS 2463             
1 36519U 10017A   12353.24772313  .00000107  00000-0  10121-3 0  3244
2 36519  82.9603 269.9192 0037501 121.2807 239.2028 13.71302298132423
